{
  "links" : {
    "next" : "https://api.nasa.gov/neo/rest/v1/feed?start_date=2015-05-16&end_date=2015-05-16&detailed=true&api_key=t0TVs3DtDT2H8Oy2Zy8m2eVrNsAVKAexjcZXUckd",
    "prev" : "https://api.nasa.gov/neo/rest/v1/feed?start_date=2015-05-14&end_date=2015-05-14&detailed=true&api_key=t0TVs3DtDT2H8Oy2Zy8m2eVrNsAVKAexjcZXUckd",
    "self" : "https://api.nasa.gov/neo/rest/v1/feed?start_date=2015-05-15&end_date=2015-05-15&detailed=true&api_key=t0TVs3DtDT2H8Oy2Zy8m2eVrNsAVKAexjcZXUckd"
  },
  "element_count" : 14,
  "near_earth_objects" : {
    "2015-05-15" : [ {
      "links" : {
        "self" : "https://api.nasa.gov/neo/rest/v1/neo/3720898?api_key=t0TVs3DtDT2H8Oy2Zy8m2eVrNsAVKAexjcZXUckd"
      },
      "neo_reference_id" : "3720898",
      "name" : "(2015 KG158)",
      "nasa_jpl_url" : "http://ssd.jpl.nasa.gov/sbdb.cgi?sstr=3720898",
      "absolute_magnitude_h" : 28.3,
      "estimated_diameter" : {
        "kilometers" : {
          "estimated_diameter_min" : 0.0058150704,
          "estimated_diameter_max" : 0.0130028927
        },
        "meters" : {
          "estimated_diameter_min" : 5.8150703965,
          "estimated_diameter_max" : 13.0028927004
        },
        "miles" : {
          "estimated_diameter_min" : 0.0036133161,
          "estimated_diameter_max" : 0.0080796204
        },
        "feet" : {
          "estimated_diameter_min" : 19.0783155595,
          "estimated_diameter_max" : 42.6604104873
        }
      },
      "is_potentially_hazardous_asteroid" : false,
      "close_approach_data" : [ {
        "close_approach_date" : "2015-05-15",
        "epoch_date_close_approach" : 1431673200000,
        "relative_velocity" : {
          "kilometers_per_second" : "7.9206110264",
          "kilometers_per_hour" : "28514.1996950691",
          "miles_per_hour" : "17717.6148049722"
        },
        "miss_distance" : {
          "astronomical" : "0.0056298404",
          "lunar" : "2.190007925",
          "kilometers" : "842212.125",
          "miles" : "523326.34375"
        },
        "orbiting_body" : "Earth"
      } ],
      "orbital_data" : {
        "orbit_id" : "6",
        "orbit_determination_date" : "2017-04-06 08:33:14",
        "orbit_uncertainty" : "6",
        "minimum_orbit_intersection" : ".000726728",
        "jupiter_tisserand_invariant" : "5.469",
        "epoch_osculation" : "2458000.5",
        "eccentricity" : ".2768179656884798",
        "semi_major_axis" : "1.138353516197415",
        "inclination" : "2.232081968519954",
        "ascending_node_longitude" : "54.1192972154016",
        "orbital_period" : "443.6231046837844",
        "perihelion_distance" : ".8232368116093187",
        "perihelion_argument" : "97.45169680225565",
        "aphelion_distance" : "1.453470220785511",
        "perihelion_time" : "2457981.105574586411",
        "mean_anomaly" : "15.73856968939628",
        "mean_motion" : ".811499663112923",
        "equinox" : "J2000"
      }
    }, {
      "links" : {
        "self" : "https://api.nasa.gov/neo/rest/v1/neo/3579078?api_key=t0TVs3DtDT2H8Oy2Zy8m2eVrNsAVKAexjcZXUckd"
      },
      "neo_reference_id" : "3579078",
      "name" : "(2011 SM68)",
      "nasa_jpl_url" : "http://ssd.jpl.nasa.gov/sbdb.cgi?sstr=3579078",
      "absolute_magnitude_h" : 19.6,
      "estimated_diameter" : {
        "kilometers" : {
          "estimated_diameter_min" : 0.3195618867,
          "estimated_diameter_max" : 0.7145621017
        },
        "meters" : {
          "estimated_diameter_min" : 319.5618867213,
          "estimated_diameter_max" : 714.5621017269
        },
        "miles" : {
          "estimated_diameter_min" : 0.1985664891,
          "estimated_diameter_max" : 0.4440081677
        },
        "feet" : {
          "estimated_diameter_min" : 1048.4314204307,
          "estimated_diameter_max" : 2344.3639258298
        }
      },
      "is_potentially_hazardous_asteroid" : true,
      "close_approach_data" : [ {
        "close_approach_date" : "2015-05-15",
        "epoch_date_close_approach" : 1431673200000,
        "relative_velocity" : {
          "kilometers_per_second" : "22.3633428562",
          "kilometers_per_hour" : "80508.0342822664",
          "miles_per_hour" : "50024.5616350004"
        },
        "miss_distance" : {
          "astronomical" : "0.1944372012",
          "lunar" : "75.6360702515",
          "kilometers" : "29087392",
          "miles" : "18074068"
        },
        "orbiting_body" : "Earth"
      } ],
      "orbital_data" : {
        "orbit_id" : "31",
        "orbit_determination_date" : "2017-04-06 08:52:42",
        "orbit_uncertainty" : "0",
        "minimum_orbit_intersection" : ".00015193",
        "jupiter_tisserand_invariant" : "4.459",
        "epoch_osculation" : "2458000.5",
        "eccentricity" : ".6641653420026916",
        "semi_major_axis" : "1.395779400894746",
        "inclination" : "19.22999998478269",
        "ascending_node_longitude" : "24.15429799535678",
        "orbital_period" : "602.3148958753487",
        "perihelion_distance" : ".4687510977391751",
        "perihelion_argument" : "109.0891454398095",
        "aphelion_distance" : "2.322807704050318",
        "perihelion_time" : "2457715.626434510963",
        "mean_anomaly" : "170.2672211468556",
        "mean_motion" : ".5976940010371308",
        "equinox" : "J2000"
      }
    } ]
  }
}